JY1SAT (JO-97)          
1 43803U 18099AX  26068.68634132  .00017774  00000+0  60804-3 0  9996
2 43803  97.4249 131.3625 0004723 256.6795 103.3919 15.30302628398390
STARLINK-35561          
1 66105U 25236V   26068.49334352  .00027045  00000+0  92199-3 0  9991
2 66105  53.1590 104.8450 0001302  86.9151 273.1999 15.30198348 22850
